LANDSAT 4               
1 13367U 82072A   13108.11655933  .00001781  00000-0  12140-3 0  3256
2 13367  98.2645 135.1304 0014906 312.2118  82.1665 15.07651633655125
TDRS 1                  
1 13969U 83026B   13106.46207344 -.00000233  00000-0  10000-3 0  5571
2 13969  13.9127 359.6006 0021365 125.9895 234.1732  0.98746520 82876
LANDSAT 5               
1 14780U 84021A   13110.19981826 -.00000703  00000-0 -11491-3 0  9198
2 14780  98.1015 175.2604 0016946 104.1038 256.0413 14.67597391549768
ERBS                    
1 15354U 84108B   13107.45851667  .00002537  00000-0  12062-3 0  2010
2 15354  57.0129 115.4671 0022810 119.8618 240.4698 15.22672856564671
TDRS 3                  
1 19548U 88091B   13107.48271484 -.00000296  00000-0  00000+0 0   621
2 19548  14.0879  24.8407 0013667 345.6676 320.2888  1.00276314 77181
TDRS 4                  
1 19883U 89021B   13105.63219772 -.00000195  00000-0  00000+0 0  3906
2 19883  11.4047  31.4598 0012256 225.0146 134.8288  0.98484679260652
HST                     
1 20580U 90037B   13107.72940891  .00001584  00000-0  10118-3 0  2193
2 20580  28.4702 309.1211 0003456  63.1635  29.3970 15.03482263 60582
TDRS 5                  
1 21639U 91054B   13109.70313810  .00000099  00000-0  00000+0 0  2728
2 21639  12.6599  38.7454 0019547 352.4134 262.3258  1.00277133 79529
TOPEX/POSEIDON          
1 22076U 92052A   13109.85233856 -.00000069  00000-0 -33888-4 0    92
2 22076  66.0436  37.0647 0008161 273.5319 100.1005 12.80974278967903
TDRS 6                  
1 22314U 93003B   13108.05482322 -.00000284  00000-0  00000+0 0  2959
2 22314  12.0794  41.5829 0012423 342.8544 155.8637  1.00269343 74226
TDRS 7                  
1 23613U 95035B   13109.54412446 -.00000193  00000-0  00000+0 0  4427
2 23613  13.5993  32.2134 0033671 356.4464  99.9888  1.00272968 65045
RXTE (XTE)              
1 23757U 95074A   13110.16180889  .00005529  00000-0  13174-3 0  8827
2 23757  22.9896  61.8533 0006570  29.0029  82.6290 15.37489068961046
TRMM                    
1 25063U 97074A   13110.18464586  .00016015  00000-0  22288-3 0  2981
2 25063  34.9598  58.3761 0001485 229.3379 255.6505 15.56022038878765
KIKU-7 (ETS-VII)        
1 25064U 97074B   13110.14243859  .00005929  00000-0  16236-3 0  8777
2 25064  34.9681 126.7431 0004261  76.7736 345.9892 15.36620127855846
ISS (ZARYA)             
1 25544U 98067A   13110.27262069  .00008419  00000-0  14271-3 0  6447
2 25544  51.6474  35.7007 0010356 160.4171 304.1803 15.52381363825715
LANDSAT 7               
1 25682U 99020A   13110.15122848  .00000136  00000-0  40171-4 0   594
2 25682  98.1949 180.4743 0000496  86.7211 273.4053 14.57123534745382
FUSE 1                  
1 25791U 99035A   13110.11723028  .00000356  00000-0  52410-4 0  5020
2 25791  24.9860   5.6847 0010233 257.3328 253.8892 14.42142180729095
TERRA                   
1 25994U 99068A   13110.16644684  .00000228  00000-0  60545-4 0   397
2 25994  98.2095 185.9295 0001199 100.5939 259.5419 14.57118644709462
TDRS 8                  
1 26388U 00034A   13109.66782733 -.00000226  00000-0  00000+0 0  8753
2 26388   4.6206  72.3998 0002815 340.5195 124.5217  1.00276231 46990
EO-1                    
1 26619U 00075A   13110.19763026  .00001135  00000-0  23074-3 0  3898
2 26619  98.0345 173.9832 0009296 219.6265 140.4311 14.62917051661312
TIMED                   
1 26998U 01055B   13110.05061312  .00000699  00000-0  85304-4 0  4723
2 26998  74.0729  93.5292 0002006 231.2889 128.8111 14.85436556615681
TDRS 9                  
1 27389U 02011A   13109.38458500 -.00000266  00000-0  10000-3 0  1249
2 27389   2.1598 114.9974 0015869 278.6912 271.3027  1.00266379 42243
AQUA                    
1 27424U 02022A   13107.80111792  .00000691  00000-0  16352-3 0  6405
2 27424  98.2137  50.0983 0001722  89.8740   5.6820 14.57107261582723
TDRS 10                 
1 27566U 02055A   13107.58346487  .00000078  00000-0  10000-3 0  8432
2 27566   2.1802  64.6259 0008376 213.4708 323.6439  1.00279652 38049
SORCE                   
1 27651U 03004A   13109.52259921  .00000868  00000-0  11636-3 0   800
2 27651  39.9944 129.0495 0024291  28.4818 100.1473 14.84435435554517
GALEX                   
1 27783U 03017A   13110.16728834  .00000576  00000-0  94904-4 0  7630
2 27783  28.9996 356.6548 0004019 202.6391 295.6260 14.60645038533004
GP-B                    
1 28230U 04014A   13109.68819788  .00000365  00000-0  49673-4 0  7156
2 28230  89.9011 145.3892 0002990 125.9284  23.9852 14.76899087484686
AURA                    
1 28376U 04026A   13107.51370374  .00000650  00000-0  15437-3 0  7789
2 28376  98.2209  52.0155 0000779  70.6317 289.4927 14.57092877465739
SWIFT                   
1 28485U 04047A   13108.82454236  .00002036  00000-0  14001-3 0  4208
2 28485  20.5579 274.2075 0012900 202.7532 262.6432 14.96120488459519
THEMIS A                
1 30580U 07004A   13108.89522464 -.00000098  00000-0  00000+0 0  5397
2 30580  11.9890  71.8251 8213148  58.0480  40.6716  1.04956130 22065
THEMIS D                
1 30797U 07004D   13107.64921519 -.00000079  00000-0  00000+0 0  6944
2 30797   8.2438  40.1548 8190091  85.4776  51.5177  1.04999629 21895
THEMIS E                
1 30798U 07004E   13107.64721632 -.00000094  00000-0  00000+0 0  7015
2 30798   8.3217  54.8341 8191208  72.7390   6.9313  1.04979938 22053
AIM                     
1 31304U 07015A   13109.83076894  .00002813  00000-0  24439-3 0   162
2 31304  97.8537 225.3310 0009044 232.2375 274.1163 14.97810186326212
C/NOFS                  
1 32765U 08017A   13108.47940575  .00018764  00000-0  67878-3 0  2812
2 32765  13.0020 192.3214 0237380 195.8152 257.5952 15.02998939272446
FGRST (GLAST)           
1 33053U 08029A   13108.65903750  .00001284  00000-0  65067-4 0  3077
2 33053  25.5827 247.1977 0014197  16.3885  92.3322 15.06959007267339
WISE                    
1 36119U 09071A   13110.08962940  .00001848  00000-0  96847-4 0  9675
2 36119  97.5192 117.8845 0002085 202.8510 188.2228 15.17042197184991
TDRS 11                 
1 39070U 13004A   13109.70632813  .00000105  00000-0  00000+0 0  1000
2 39070   6.9601 331.6473 0010476 249.3380  91.6527  1.00279675   835
